NORAD_CAT_ID,OBJECT_NAME,OBJECT_TYPE,EPOCH,MEAN_MOTION,ECCENTRICITY,INCLINATION,RA_OF_ASC_NODE,ARG_OF_PERICENTER,MEAN_ANOMALY,BSTAR,MEAN_MOTION_DOT,MEAN_MOTION_DDOT,TLE_LINE0,TLE_LINE1,TLE_LINE2,SEMIMAJOR_AXIS,PERIOD,APOGEE,PERIGEE,DECAYED
49417.0,STARLINK-3154,PAYLOAD,2023-01-12 02:59:21,15.08826676,0.0002603,53.2172,353.1859,28.4813,331.6321,-8.5381e-05,-1.647e-05,0.0,0 STARLINK-3154,1 49417U 21104K   23012.12455578 -.00001647  00000-0 -85381-4 0  9997,2 49417  53.2172 353.1859 0002603  28.4813 331.6321 15.08826676 65872,6917.920999999999,95.438,541.587,537.985,0.0
49417.0,STARLINK-3154,PAYLOAD,2023-01-12 22:03:59,15.08827609,0.0002444,53.2165,349.6169,35.6944,324.4211,4.4207e-05,4.15e-06,0.0,0 STARLINK-3154,1 49417U 21104K   23012.91944248  .00000415  00000-0  44207-4 0  9993,2 49417  53.2165 349.6169 0002444  35.6944 324.4211 15.08827609 64881,6917.9180000000015,95.438,541.474,538.0930000000002,0.0
49417.0,STARLINK-3154,PAYLOAD,2023-01-13 02:50:08,15.08841358,0.0002475,53.2172,348.725,28.1185,331.994,0.00011697,1.574e-05,0.0,0 STARLINK-3154,1 49417U 21104K   23013.11815789  .00001574  00000-0  11697-3 0  9996,2 49417  53.2172 348.7250 0002475  28.1185 331.9940 15.08841358 66025,6917.876,95.437,541.453,538.029,0.0
49417.0,STARLINK-3154,PAYLOAD,2023-01-13 07:36:18,15.08848531,0.0002445,53.2164,347.8327,33.8755,326.2393,0.0004316,6.589e-05,0.0,0 STARLINK-3154,1 49417U 21104K   23013.31687609  .00006589  00000-0  43160-3 0  9997,2 49417  53.2164 347.8327 0002445  33.8755 326.2393 15.08848531 64942,6917.854,95.437,541.411,538.028,0.0
49417.0,STARLINK-3154,PAYLOAD,2023-01-13 15:33:14,15.08839173,0.0002331,53.2164,346.3453,37.7018,322.4137,0.00041992,6.401e-05,0.0,0 STARLINK-3154,1 49417U 21104K   23013.64808225  .00006401  00000-0  41992-3 0  9996,2 49417  53.2164 346.3453 0002331  37.7018 322.4137 15.08839173 64996,6917.883000000001,95.438,541.36,538.135,0.0
49417.0,STARLINK-3154,PAYLOAD,2023-01-14 04:16:19,15.08840571,0.0001996,53.2158,343.965,42.4267,317.6879,0.00024712,3.647e-05,0.0,0 STARLINK-3154,1 49417U 21104K   23014.17800216  .00003647  00000-0  24712-3 0  9997,2 49417  53.2158 343.9650 0001996  42.4267 317.6879 15.08840571 66182,6917.879,95.438,541.124,538.363,0.0
49417.0,STARLINK-3154,PAYLOAD,2023-01-15 07:17:52,15.08851143,0.0002258,53.2152,338.9126,56.5412,303.5795,0.00034038,5.135e-05,0.0,0 STARLINK-3154,1 49417U 21104K   23015.30407934  .00005135  00000-0  34038-3 0  9999,2 49417  53.2152 338.9126 0002258  56.5412 303.5795 15.08851143 65242,6917.846,95.437,541.273,538.149,0.0
49417.0,STARLINK-3154,PAYLOAD,2023-01-16 07:08:38,15.08882514,0.0001871,53.218,334.4523,65.6606,294.4581,0.00088374,0.00013821,0.0,0 STARLINK-3154,1 49417U 21104K   23016.29766312  .00013821  00000-0  88374-3 0  9999,2 49417  53.2180 334.4523 0001871  65.6606 294.4581 15.08882514 66508,6917.75,95.435,540.91,538.321,0.0
49417.0,STARLINK-3154,PAYLOAD,2023-01-16 21:27:07,15.08826847,0.0002269,53.2164,331.7747,70.3464,289.7773,-0.00031878,-5.356e-05,0.0,0 STARLINK-3154,1 49417U 21104K   23016.89384088 -.00005356  00000-0 -31878-3 0  9994,2 49417  53.2164 331.7747 0002269  70.3464 289.7773 15.08826847 66591,6917.920999999999,95.438,541.355,538.216,0.0
49417.0,STARLINK-3154,PAYLOAD,2023-01-17 13:20:59,15.08825499,0.0001524,53.2166,328.8015,83.8985,276.2181,0.00048921,7.503e-05,0.0,0 STARLINK-3154,1 49417U 21104K   23017.55624652  .00007503  00000-0  48921-3 0  9993,2 49417  53.2166 328.8015 0001524  83.8985 276.2181 15.08825499 65582,6917.925,95.438,540.844,538.735,0.0
49417.0,STARLINK-3154,PAYLOAD,2023-01-17 21:17:55,15.08818747,0.0001557,53.2168,327.3156,93.0301,267.087,7.0703e-05,8.37e-06,0.0,0 STARLINK-3154,1 49417U 21104K   23017.88745245  .00000837  00000-0  70703-4 0  9998,2 49417  53.2168 327.3156 0001557  93.0301 267.0870 15.08818747 65632,6917.945,95.439,540.887,538.7330000000001,0.0
49417.0,STARLINK-3154,PAYLOAD,2023-01-18 06:50:14,15.08851711,0.0001528,53.2174,325.5325,94.6329,265.4838,0.0014735999999999,0.0002325,0.0,0 STARLINK-3154,1 49417U 21104K   23018.28489113  .00023250  00000-0  14736-2 0  9998,2 49417  53.2174 325.5325 0001528  94.6329 265.4838 15.08851711 66806,6917.845,95.437,540.7669999999999,538.653,0.0
49417.0,STARLINK-3154,PAYLOAD,2023-01-18 13:11:46,15.08849602,7.74e-05,53.2167,324.342,104.393,255.7148,0.0009410999999999,0.00014725,0.0,0 STARLINK-3154,1 49417U 21104K   23018.54984948  .00014725  00000-0  94110-3 0  9995,2 49417  53.2167 324.3420 0000774 104.3930 255.7148 15.08849602 66846,6917.851,95.437,540.251,539.181,0.0
49417.0,STARLINK-3154,PAYLOAD,2023-01-19 01:54:51,15.08884666,0.0001234,53.2166,321.9634,103.233,256.88,0.0024942,0.0003968,0.0,0 STARLINK-3154,1 49417U 21104K   23019.07976292  .00039680  00000-0  24942-2 0  9999,2 49417  53.2166 321.9634 0001234 103.2330 256.8800 15.08884666 66924,6917.744000000001,95.435,540.4630000000001,538.755,0.0
49417.0,STARLINK-3154,PAYLOAD,2023-01-19 13:02:33,15.08866414,0.0001176,53.2163,319.8813,108.9443,251.1677,0.00097544,0.00015281,0.0,0 STARLINK-3154,1 49417U 21104K   23019.54343965  .00015281  00000-0  97544-3 0  9996,2 49417  53.2163 319.8813 0001176 108.9443 251.1677 15.08866414 65883,6917.8,95.436,540.4780000000001,538.851,0.0
49417.0,STARLINK-3154,PAYLOAD,2023-01-20 12:53:20,15.08836768,0.0002282,53.2156,315.4176,242.1184,117.9577,0.001366,0.00021517,0.0,0 STARLINK-3154,1 49417U 21104K   23020.53704043  .00021517  00000-0  13660-2 0  9990,2 49417  53.2156 315.4176 0002282 242.1184 117.9577 15.08836768 67149,6917.89,95.438,541.3340000000001,538.177,0.0
49417.0,STARLINK-3154,PAYLOAD,2023-01-21 04:47:12,15.08850504,0.0001257,53.2156,312.445,112.607,247.5055,0.00059624,9.217e-05,0.0,0 STARLINK-3154,1 49417U 21104K   23021.19945224  .00009217  00000-0  59624-3 0  9995,2 49417  53.2156 312.4450 0001257 112.6070 247.5055 15.08850504 67243,6917.848000000001,95.437,540.5830000000001,538.844,0.0
49417.0,STARLINK-3154,PAYLOAD,2023-01-22 12:34:55,15.0885162,0.0002493,53.2139,306.5006,75.3502,284.7767,0.00048094,7.377e-05,0.0,0 STARLINK-3154,1 49417U 21104K   23022.52425915  .00007377  00000-0  48094-3 0  9997,2 49417  53.2139 306.5006 0002493  75.3502 284.7767 15.08851620 67448,6917.845,95.437,541.434,537.985,0.0
49417.0,STARLINK-3154,PAYLOAD,2023-01-23 04:28:46,15.08842919,0.0001281999999999,53.2172,303.5241,86.63,273.4839,8.6617e-05,1.091e-05,0.0,0 STARLINK-3154,1 49417U 21104K   23023.18665331  .00001091  00000-0  86617-4 0  9999,2 49417  53.2172 303.5241 0001282  86.6300 273.4839 15.08842919 67546,6917.871,95.437,540.623,538.85,0.0
49417.0,STARLINK-3154,PAYLOAD,2023-01-23 18:47:15,15.08833176,0.0001186,53.2165,300.8506,74.1685,285.9438,0.00033537,5.053e-05,0.0,0 STARLINK-3154,1 49417U 21104K   23023.78282090  .00005053  00000-0  33537-3 0  9996,2 49417  53.2165 300.8506 0001186  74.1685 285.9438 15.08833176 67631,6917.901,95.438,540.587,538.946,0.0
49417.0,STARLINK-3154,PAYLOAD,2023-01-23 23:33:24,15.0884449,0.0001319,53.2158,299.957,86.7439,273.3704,0.00060604,9.371e-05,0.0,0 STARLINK-3154,1 49417U 21104K   23023.98153763  .00009371  00000-0  60604-3 0  9994,2 49417  53.2158 299.9570 0001319  86.7439 273.3704 15.08844490 67667,6917.866999999999,95.437,540.644,538.819,0.0
49417.0,STARLINK-3154,PAYLOAD,2023-01-24 13:51:52,15.08846066,0.0001261,53.215,297.2834,72.3683,287.7447,0.00033923,5.116e-05,0.0,0 STARLINK-3154,1 49417U 21104K   23024.57769661  .00005116  00000-0  33923-3 0  9997,2 49417  53.2150 297.2834 0001261  72.3683 287.7447 15.08846066 67755,6917.861999999999,95.437,540.599,538.855,0.0
49417.0,STARLINK-3154,PAYLOAD,2023-01-25 10:31:53,15.08848668,0.0001103,53.2155,293.4176,77.4667,282.6448,0.00012964,1.776e-05,0.0,0 STARLINK-3154,1 49417U 21104K   23025.43881035  .00001776  00000-0  12964-3 0  9993,2 49417  53.2155 293.4176 0001103  77.4667 282.6448 15.08848668 66776,6917.854,95.437,540.482,538.956,0.0
49417.0,STARLINK-3154,PAYLOAD,2023-01-25 13:42:39,15.08842469,0.0001132,53.2179,292.8284,87.7903,272.3219,7.8297e-05,9.59e-06,0.0,0 STARLINK-3154,1 49417U 21104K   23025.57129344  .00000959  00000-0  78297-4 0  9990,2 49417  53.2179 292.8284 0001132  87.7903 272.3219 15.08842469 67905,6917.8730000000005,95.437,540.521,538.955,0.0
49417.0,STARLINK-3154,PAYLOAD,2023-01-26 00:50:21,15.08839029,0.0001135,53.2155,290.7412,86.5533,273.5589,-1.2909e-05,-4.93e-06,0.0,0 STARLINK-3154,1 49417U 21104K   23026.03497556 -.00000493  00000-0 -12909-4 0  9998,2 49417  53.2155 290.7412 0001135  86.5533 273.5589 15.08839029 66863,6917.883000000001,95.438,540.534,538.9630000000001,0.0
49417.0,STARLINK-3154,PAYLOAD,2023-01-26 23:05:45,15.08849388,0.0001085999999999,53.2147,286.5777,86.3961,273.7155,0.00033095,4.984e-05,0.0,0 STARLINK-3154,1 49417U 21104K   23026.96233548  .00004984  00000-0  33095-3 0  9994,2 49417  53.2147 286.5777 0001086  86.3961 273.7155 15.08849388 68119,6917.852,95.437,540.4680000000001,538.965,0.0
49417.0,STARLINK-3154,PAYLOAD,2023-01-27 11:48:51,15.08841645,0.0001186,53.2139,284.1974,99.156,260.9567,0.00024651,3.638e-05,0.0,0 STARLINK-3154,1 49417U 21104K   23027.49225748  .00003638  00000-0  24651-3 0  9999,2 49417  53.2139 284.1974 0001186  99.1560 260.9567 15.08841645 68192,6917.875,95.437,540.561,538.92,0.0
49417.0,STARLINK-3154,PAYLOAD,2023-01-27 21:21:10,15.08831996,0.0001199999999999,53.2151,282.4114,125.9859,234.1245,-3.4089e-05,-8.3e-06,0.0,0 STARLINK-3154,1 49417U 21104K   23027.88970045 -.00000830  00000-0 -34089-4 0  9999,2 49417  53.2151 282.4114 0001200 125.9859 234.1245 15.08831996 67147,6917.905,95.438,540.6,538.94,0.0
49417.0,STARLINK-3154,PAYLOAD,2023-01-28 02:07:19,15.08835688,0.0001262999999999,53.2144,281.5221,81.6419,278.4716,8.9414e-05,1.135e-05,0.0,0 STARLINK-3154,1 49417U 21104K   23028.08842319  .00001135  00000-0  89414-4 0  9993,2 49417  53.2144 281.5221 0001263  81.6419 278.4716 15.08835688 68289,6917.894,95.438,540.632,538.885,0.0
